54338,1 54338U 22151CH  25160.94602546  .00000917  00000-0  50732-3 0  9991,2 54338  98.8336 166.7684 0038696 305.4872  54.2692 14.13489442132184
54339,1 54339U 22151CJ  25160.94630026  .00000235  00000-0  15427-3 0  9991,2 54339  98.8200 162.9946 0041404 313.8785  45.8969 14.10866049132082
54340,1 54340U 22151CK  25160.72641476  .00005271  00000-0  79021-3 0  9995,2 54340  98.6226 223.5403 0111976 260.4306  98.4232 14.70893677136590
54340,1 54340U 22151CK  25160.11417669  .00005271  00000-0  79039-3 0  9992,2 54340  98.6228 222.8924 0111960 262.3688  96.4789 14.70887240136504
54341,1 54341U 22151CL  25160.58657200  .00000958  00000-0  44441-3 0  9997,2 54341  98.7841 176.2109 0046348 342.0386  17.9152 14.22522517132926
54342,1 54342U 22151CM  25160.92933652  .00000240  00000-0  16243-3 0  9997,2 54342  98.8208 159.5591 0051059 323.4493  36.3196 14.08735713131875
54343,1 54343U 22151CN  25160.92382120  .00000173  00000-0  12115-3 0  9995,2 54343  98.8249 163.4777 0040909 311.0646  48.6993 14.10514357132049
54344,1 54344U 22151CP  25160.90054829  .00000005  00000-0  28803-4 0  9992,2 54344  98.8426 159.9032 0055767 326.1087  33.6523 14.07169263131742
54345,1 54345U 22151CQ  25160.55467278  .00006363  00000-0  19518-2 0  9994,2 54345  98.6803 178.9919 0061540 105.1223 255.6783 14.40902578133767
54346,1 54346U 22151CR  25160.62550233  .00009522  00000-0  10229-2 0  9997,2 54346  98.5752 221.7823 0079370 252.7191 106.5327 14.86492743136864
54348,1 54348U 22151CT  25160.62909175  .00001111  00000-0  38146-3 0  9997,2 54348  98.6572 183.3252 0103398  63.1502 298.0209 14.35125275134135
54349,1 54349U 22151CU  25160.82921293  .00000602  00000-0  24383-3 0  9997,2 54349  98.6906 176.2216 0110678 108.5900 252.7339 14.27945270133566
54350,1 54350U 22151CV  25160.53369802  .00000304  00000-0  12100-3 0  9992,2 54350  98.7488 196.7723 0067655 358.5249   1.5725 14.34535592134204
54352,1 54352U 22151CX  25160.76924605  .00016555  00000-0  18696-2 0  9997,2 54352  99.0279 263.5100 0103239 351.7991   8.1527 14.82778958 64605
54353,1 54353U 22151CY  25160.76876743  .00007631  00000-0  14987-2 0  9991,2 54353  99.0726 247.9511 0126480  60.0268 301.3414 14.57971733135122
54354,1 54354U 22151CZ  25160.11967588  .00011289  00000-0  18866-2 0  9993,2 54354  98.7420 217.8559 0124311  11.7681 348.6378 14.65025382135460
54356,1 54356U 22151DB  25160.08102896  .00003416  00000-0  12190-2 0  9991,2 54356  98.8969 202.4918 0071596 125.1999 235.5916 14.33405333133551
54358,1 54358U 22151DD  25160.57762732  .00006661  00000-0  86791-3 0  9992,2 54358  98.4868 208.4925 0101648 247.4881 111.5543 14.77360184136735
54359,1 54359U 22151DE  25160.83990159  .00016913  00000-0  17213-2 0  9991,2 54359  99.0047 262.0055 0101741 348.9993  10.8994 14.87010939 64661
54361,1 54361U 22158A   25160.86387157  .00000249  00000-0  80420-4 0  9999,2 54361  98.3528 259.0586 0002055  65.2249 294.9157 14.46987816133997
54361,1 54361U 22158A   25160.24152663  .00000265  00000-0  84934-4 0  9995,2 54361  98.3527 258.4446 0002083  65.9194 294.2216 14.46987482133900
54361,1 54361U 22158A   25160.24152663  .00000265  00000-0  84934-4 0  9995,2 54361  98.3527 258.4446 0002083  65.9194 294.2216 14.46987482133900
54362,1 54362U 22158B   25160.86826719  .00009839  00000-0  25373-3 0  9991,2 54362  97.4659 269.3592 0013998 222.9138 137.1017 15.39292354141239
54367,1 54367U 22158G   25160.88321629  .00062569  00000-0  51335-3 0  9994,2 54367  97.4356 279.5474 0007718 208.6664 151.4175 15.70251592142057
54369,1 54369U 22158J   25160.88051202  .00054801  00000-0  57124-3 0  9995,2 54369  97.4448 279.4924 0005772 207.0772 153.0186 15.64358895142036
54370,1 54370U 22158K   25160.85105740  .00030126  00000-0  35791-3 0  9991,2 54370  97.4533 279.6833 0003838 213.9287 146.1725 15.61117467142028
54377,1 54377U 22161A   25160.64890141  .00000093  00000-0  00000-0 0  9997,2 54377  64.7373 205.0800 0011608 223.9326 136.0656  2.13102160 19694
54381,1 54381U 22163A   25160.92496360 -.00000048  00000-0  19748-4 0  9994,2 54381  67.1474 292.0101 0006748 268.2228  91.8083 13.96672017128789
54383,1 54383U 22163C   25160.91070140 -.00000006  00000-0  49096-4 0  9992,2 54383  67.1424 288.6327 0009711 327.5284  32.5202 13.97634578128541
54383,1 54383U 22163C   25160.40977819 -.00000008  00000-0  47896-4 0  9993,2 54383  67.1424 289.8524 0009671 327.7838  32.2655 13.97634530128474
54384,1 54384U 22151DG  25160.48878035  .00001174  00000-0  54595-3 0  9996,2 54384  98.7722 173.2278 0036863 170.5263 189.6617 14.22142696132833
54385,1 54385U 22151DH  25160.91720663  .00000267  00000-0  19376-3 0  9998,2 54385  98.8695 155.6714 0076614 342.8208  17.0368 14.03340296131352
54386,1 54386U 22151DJ  25160.94311865  .00000525  00000-0  37588-3 0  9994,2 54386  98.8897 146.8167 0130092  34.8214 326.1377 13.97391731130745
54388,1 54388U 22151DL  25160.94353455  .00000712  00000-0  45460-3 0  9993,2 54388  98.8499 152.4822 0089211 353.3342   6.6632 14.04781090131333
54389,1 54389U 22151DM  25160.89462182  .00000406  00000-0  31809-3 0  9998,2 54389  98.8773 139.0609 0127987  25.1666 335.5660 13.93717496130407
54390,1 54390U 22151DN  25160.86538258  .00000560  00000-0  43242-3 0  9990,2 54390  98.9310 144.4359 0128039  18.0428 342.5217 13.93110196130337
54391,1 54391U 22151DP  25160.54975707  .00001606  00000-0  35210-3 0  9998,2 54391  98.5000 190.2247 0137104 324.2903  34.9180 14.53459439135900
54393,1 54393U 22151DR  25160.74641017 -.00000047  00000-0 -11922-4 0  9991,2 54393  98.5513  58.9103 0315345 161.5440 199.7454 13.58479776127427
54394,1 54394U 22151DS  25160.69667650  .00001967  00000-0  58420-3 0  9990,2 54394  98.5996 184.9350 0103599  25.0683 335.5484 14.41320230134914
54395,1 54395U 22151DT  25160.49793090  .00003370  00000-0  78382-3 0  9996,2 54395  98.4936 181.5976 0125172 351.4887   8.4183 14.50877002135465
54397,1 54397U 22151DV  25160.73985573  .00020684  00000-0  18272-2 0  9992,2 54397  98.4865 221.0941 0086830 182.3510 177.7312 14.93487698137754
54400,1 54400U 22151DY  25160.63662715  .00001726  00000-0  35445-3 0  9994,2 54400  98.6196 210.7167 0125005 303.2126  55.7137 14.57286956136188
54402,1 54402U 22151EA  25160.50799558  .00001486  00000-0  79320-3 0  9991,2 54402  98.6818 137.6110 0145459 241.6556 116.9881 14.09496836131888
54403,1 54403U 22151EB  25160.92802863  .00003747  00000-0  14943-2 0  9993,2 54403  98.6619 152.7468 0116191 185.4179 174.5752 14.25490569132848
54404,1 54404U 22151EC  25160.93503567  .00000702  00000-0  32846-3 0  9995,2 54404  98.7740 176.6461 0054719 342.9075  17.0259 14.22680651133344
54405,1 54405U 22151ED  25160.45494940  .00001854  00000-0  31423-3 0  9996,2 54405  98.7010 230.4936 0146888 282.8340  75.6484 14.63813072136722
54405,1 54405U 22151ED  25160.79672223  .00001784  00000-0  30287-3 0  9994,2 54405  98.7010 230.8545 0146871 281.7702  76.7054 14.63814065136777
54406,1 54406U 22151EE  25160.58139832  .00005677  00000-0  17220-2 0  9992,2 54406  98.6192 174.3518 0117972  85.1432 276.3213 14.38621070134267
54407,1 54407U 22151EF  25160.91917001  .00001620  00000-0  77746-3 0  9996,2 54407  98.7681 166.3743 0043222 325.4491  34.3878 14.19840818132836
54409,1 54409U 22151EH  25160.54348747  .00002107  00000-0  91235-3 0  9992,2 54409  98.7359 160.0731 0138991 193.0282 166.7290 14.20292224132701
54410,1 54410U 22151EJ  25160.61797308  .00000947  00000-0  28299-3 0  9993,2 54410  98.7243 196.6515 0129528 293.7465  65.0181 14.40715389134680
54411,1 54411U 22151EK  25160.94911778  .00000662  00000-0  22677-3 0  9997,2 54411  98.7341 180.0100 0206087 319.6078  38.9952 14.28561185133730
54412,1 54412U 22151EL  25160.13174025  .00008343  00000-0  10572-2 0  9999,2 54412  98.6535 233.3897 0111114 220.8088 138.4761 14.77735316137269
54414,1 54414U 22151EN  25160.93071165  .00000193  00000-0  16314-3 0  9996,2 54414  98.9168 144.9241 0120206  13.3877 347.0428 13.95670133130769
54415,1 54415U 22151EP  25160.82384893  .00001043  00000-0  85531-3 0  9992,2 54415  98.9832 108.0305 0356795  94.1095 270.0905 13.65552176127992
54416,1 54416U 22151EQ  25160.87735765  .00000390  00000-0  35043-3 0  9993,2 54416  98.8856 122.8468 0178604  70.1486 291.8822 13.82551023129698
54417,1 54417U 22151ER  25160.89742006  .00000928  00000-0  73807-3 0  9999,2 54417  98.9390 133.3040 0162166  52.6915 308.8899 13.87629517129922
54418,1 54418U 22151ES  25160.81910475  .00000901  00000-0  86163-3 0  9999,2 54418  98.8664 102.6243 0243802  96.4458 266.4510 13.70321920128472
54422,1 54422U 22151EW  25160.88162537  .00000046  00000-0  44368-4 0  9991,2 54422  98.8186 174.3162 0036532 341.7316  18.2544 14.17300174132881
54424,1 54424U 22151EY  25160.90211382  .00000269  00000-0  20562-3 0  9995,2 54424  98.9505 158.9114 0101122 333.5780  26.0248 13.99495922131271
54425,1 54425U 22151EZ  25160.71624963  .00002262  00000-0  44904-3 0  9999,2 54425  98.8585 241.3303 0126405 279.5611  79.1321 14.58392896136367
54427,1 54427U 22151FB  25160.92756832  .00000906  00000-0  74631-3 0  9998,2 54427  99.0098 138.3088 0177524  81.6386 280.4852 13.84543697129773
54428,1 54428U 22151FC  25160.72193245  .00000086  00000-0  15945-3 0  9992,2 54428  99.1417  71.0341 0463556 281.0800  73.8545 13.26783656124477
54429,1 54429U 22151FD  25160.92107552  .00000012  00000-0  41887-4 0  9995,2 54429  99.0059 140.5962 0169099  43.6121 317.8259 13.85175787129993
54431,1 54431U 22151FF  25160.91607024  .00000400  00000-0  27323-3 0  9995,2 54431  98.9720 165.4472 0115511 310.3538  48.7585 14.02421044131431
54432,1 54432U 22151FG  25160.46211653  .00003229  00000-0  17658-2 0  9996,2 54432  98.9853 161.7827 0175252 310.7558  47.8508 14.05190689131139
54433,1 54433U 22151FH  25160.89451324  .00000150  00000-0  18792-3 0  9996,2 54433  99.1969 128.4165 0260810 147.6358 214.1088 13.64427336128028
54436,1 54436U 22151FL  25160.95168403  .00000324  00000-0  13512-3 0  9997,2 54436  98.5989 168.4075 0103955  79.1151 282.1709 14.29686793134170
